KAZSTSAT
1 43783U 18099AB  19238.80914408  .00000294  00000-0  33213-4 0  9990
2 43783  97.7545 309.7918 0010280  88.9080 271.3318 14.93606319 39701
